{
  "type": "FeatureCollection",
  "features": [
    {
      "type": "Feature",
      "properties": {
        "norad_id": 29486,
        "name": "GPS BIIRM-2 (PRN 31)",
        "group": "gps-ops",
        "lat": 48.45996606761211,
        "lon": -74.18734160572764,
        "alt_km": 20039.15265414908,
        "timestamp": "2025-12-06T16:45:42.980949+00:00",
        "meta_object_name": "GPS BIIRM-2 (PRN 31)",
        "meta_object_id": "2006-042A",
        "meta_epoch": "2025-12-05T13:29:33.507168",
        "meta_mean_motion": 2.00554326,
        "meta_eccentricity": 0.01073593,
        "meta_inclination": 54.693,
        "meta_ra_of_asc_node": 159.0256,
        "meta_arg_of_pericenter": 51.7863,
        "meta_mean_anomaly": 320.1689,
        "meta_ephemeris_type": 0,
        "meta_classification_type": "U",
        "meta_norad_cat_id": 29486,
        "meta_element_set_no": 999,
        "meta_rev_at_epoch": 14051,
        "meta_bstar": 0,
        "meta_mean_motion_dot": 7.3e-07,
        "meta_mean_motion_ddot": 0,
        "tle_line1": "1 29486U 06042A   25339.56219337  .00000073  00000+0  00000+0 0  9997",
        "tle_line2": "2 29486  54.6930 159.0256 0107359  51.7863 320.1689  2.00554326140518"
      },
      "geometry": {
        "type": "Point",
        "coordinates": [
          -74.18734160572764,
          48.45996606761211
        ]
      }
    },
    {
      "type": "Feature",
      "properties": {
        "norad_id": 29601,
        "name": "GPS BIIRM-3 (PRN 12)",
        "group": "gps-ops",
        "lat": 7.739200142813431,
        "lon": 36.18175517734685,
        "alt_km": 20150.962852872817,
        "timestamp": "2025-12-06T16:45:42.980961+00:00",
        "meta_object_name": "GPS BIIRM-3 (PRN 12)",
        "meta_object_id": "2006-052A",
        "meta_epoch": "2025-12-05T23:11:48.178176",
        "meta_mean_motion": 2.00572974,
        "meta_eccentricity": 0.00876305,
        "meta_inclination": 54.9719,
        "meta_ra_of_asc_node": 221.6671,
        "meta_arg_of_pericenter": 87.3693,
        "meta_mean_anomaly": 273.7261,
        "meta_ephemeris_type": 0,
        "meta_classification_type": "U",
        "meta_norad_cat_id": 29601,
        "meta_element_set_no": 999,
        "meta_rev_at_epoch": 13953,
        "meta_bstar": 0,
        "meta_mean_motion_dot": 4.9e-07,
        "meta_mean_motion_ddot": 0,
        "tle_line1": "1 29601U 06052A   25339.96652984  .00000049  00000+0  00000+0 0  9993",
        "tle_line2": "2 29601  54.9719 221.6671 0087630  87.3693 273.7261  2.00572974139535"
      },
      "geometry": {
        "type": "Point",
        "coordinates": [
          36.18175517734685,
          7.739200142813431
        ]
      }
    },
    {
      "type": "Feature",
      "properties": {
        "norad_id": 32260,
        "name": "GPS BIIRM-4 (PRN 15)",
        "group": "gps-ops",
        "lat": -39.29410414917308,
        "lon": 51.474805836638694,
        "alt_km": 20500.51169281209,
        "timestamp": "2025-12-06T16:45:42.980974+00:00",
        "meta_object_name": "GPS BIIRM-4 (PRN 15)",
        "meta_object_id": "2007-047A",
        "meta_epoch": "2025-12-05T06:35:49.168896",
        "meta_mean_motion": 2.0056471,
        "meta_eccentricity": 0.01643532,
        "meta_inclination": 53.9502,
        "meta_ra_of_asc_node": 88.0669,
        "meta_arg_of_pericenter": 85.1619,
        "meta_mean_anomaly": 276.6895,
        "meta_ephemeris_type": 0,
        "meta_classification_type": "U",
        "meta_norad_cat_id": 32260,
        "meta_element_set_no": 999,
        "meta_rev_at_epoch": 13292,
        "meta_bstar": 0,
        "meta_mean_motion_dot": -2.6e-07,
        "meta_mean_motion_ddot": 0,
        "tle_line1": "1 32260U 07047A   25339.27487464 -.00000026  00000+0  00000+0 0  9992",
        "tle_line2": "2 32260  53.9502  88.0669 0164353  85.1619 276.6895  2.00564710132923"
      },
      "geometry": {
        "type": "Point",
        "coordinates": [
          51.474805836638694,
          -39.29410414917308
        ]
      }
    },
    {
      "type": "Feature",
      "properties": {
        "norad_id": 32384,
        "name": "GPS BIIRM-5 (PRN 29)",
        "group": "gps-ops",
        "lat": 53.54197326630051,
        "lon": -7.995104368456654,
        "alt_km": 20165.962530237794,
        "timestamp": "2025-12-06T16:45:42.980986+00:00",
        "meta_object_name": "GPS BIIRM-5 (PRN 29)",
        "meta_object_id": "2007-062A",
        "meta_epoch": "2025-12-06T07:55:36.402816",
        "meta_mean_motion": 2.00576852,
        "meta_eccentricity": 0.00322142,
        "meta_inclination": 55.1879,
        "meta_ra_of_asc_node": 281.903,
        "meta_arg_of_pericenter": 162.6829,
        "meta_mean_anomaly": 10.1914,
        "meta_ephemeris_type": 0,
        "meta_classification_type": "U",
        "meta_norad_cat_id": 32384,
        "meta_element_set_no": 999,
        "meta_rev_at_epoch": 13164,
        "meta_bstar": 0,
        "meta_mean_motion_dot": -3.7e-07,
        "meta_mean_motion_ddot": 0,
        "tle_line1": "1 32384U 07062A   25340.33028244 -.00000037  00000+0  00000+0 0  9994",
        "tle_line2": "2 32384  55.1879 281.9030 0032214 162.6829  10.1914  2.00576852131642"
      },
      "geometry": {
        "type": "Point",
        "coordinates": [
          -7.995104368456654,
          53.54197326630051
        ]
      }
    },
    {
      "type": "Feature",
      "properties": {
        "norad_id": 32711,
        "name": "GPS BIIRM-6 (PRN 07)",
        "group": "gps-ops",
        "lat": 4.308684404057583,
        "lon": 160.69401775844284,
        "alt_km": 20445.357728651124,
        "timestamp": "2025-12-06T16:45:42.980997+00:00",
        "meta_object_name": "GPS BIIRM-6 (PRN 07)",
        "meta_object_id": "2008-012A",
        "meta_epoch": "2025-12-05T16:39:04.632768",
        "meta_mean_motion": 2.00565224,
        "meta_eccentricity": 0.02021668,
        "meta_inclination": 54.476,
        "meta_ra_of_asc_node": 157.6542,
        "meta_arg_of_pericenter": 244.8708,
        "meta_mean_anomaly": 113.0379,
        "meta_ephemeris_type": 0,
        "meta_classification_type": "U",
        "meta_norad_cat_id": 32711,
        "meta_element_set_no": 999,
        "meta_rev_at_epoch": 12987,
        "meta_bstar": 0,
        "meta_mean_motion_dot": 7e-07,
        "meta_mean_motion_ddot": 0,
        "tle_line1": "1 32711U 08012A   25339.69380362  .00000070  00000+0  00000+0 0  9999",
        "tle_line2": "2 32711  54.4760 157.6542 0202166 244.8708 113.0379  2.00565224129879"
      },
      "geometry": {
        "type": "Point",
        "coordinates": [
          160.69401775844284,
          4.308684404057583
        ]
      }
    },
    {
      "type": "Feature",
      "properties": {
        "norad_id": 35752,
        "name": "GPS BIIRM-8 (PRN 05)",
        "group": "gps-ops",
        "lat": 18.727194778091626,
        "lon": 48.212605773142734,
        "alt_km": 20108.413511370785,
        "timestamp": "2025-12-06T16:45:42.981009+00:00",
        "meta_object_name": "GPS BIIRM-8 (PRN 05)",
        "meta_object_id": "2009-043A",
        "meta_epoch": "2025-12-06T04:15:17.726400",
        "meta_mean_motion": 2.00565936,
        "meta_eccentricity": 0.00519837,
        "meta_inclination": 56.0865,
        "meta_ra_of_asc_node": 35.042,
        "meta_arg_of_pericenter": 82.0207,
        "meta_mean_anomaly": 285.0233,
        "meta_ephemeris_type": 0,
        "meta_classification_type": "U",
        "meta_norad_cat_id": 35752,
        "meta_element_set_no": 999,
        "meta_rev_at_epoch": 11949,
        "meta_bstar": 0,
        "meta_mean_motion_dot": -7.1e-07,
        "meta_mean_motion_ddot": 0,
        "tle_line1": "1 35752U 09043A   25340.17728850 -.00000071  00000+0  00000+0 0  9997",
        "tle_line2": "2 35752  56.0865  35.0420 0051983  82.0207 285.0233  2.00565936119496"
      },
      "geometry": {
        "type": "Point",
        "coordinates": [
          48.212605773142734,
          18.727194778091626
        ]
      }
    },
    {
      "type": "Feature",
      "properties": {
        "norad_id": 36585,
        "name": "GPS BIIF-1  (PRN 25)",
        "group": "gps-ops",
        "lat": 29.02840886594606,
        "lon": 12.827466583089292,
        "alt_km": 20107.863146192416,
        "timestamp": "2025-12-06T16:45:42.981020+00:00",
        "meta_object_name": "GPS BIIF-1  (PRN 25)",
        "meta_object_id": "2010-022A",
        "meta_epoch": "2025-12-06T05:55:19.682976",
        "meta_mean_motion": 2.00552783,
        "meta_eccentricity": 0.01258443,
        "meta_inclination": 54.3013,
        "meta_ra_of_asc_node": 216.3359,
        "meta_arg_of_pericenter": 65.0038,
        "meta_mean_anomaly": 110.8352,
        "meta_ephemeris_type": 0,
        "meta_classification_type": "U",
        "meta_norad_cat_id": 36585,
        "meta_element_set_no": 999,
        "meta_rev_at_epoch": 11372,
        "meta_bstar": 0,
        "meta_mean_motion_dot": 5.1e-07,
        "meta_mean_motion_ddot": 0,
        "tle_line1": "1 36585U 10022A   25340.24675559  .00000051  00000+0  00000+0 0  9993",
        "tle_line2": "2 36585  54.3013 216.3359 0125844  65.0038 110.8352  2.00552783113726"
      },
      "geometry": {
        "type": "Point",
        "coordinates": [
          12.827466583089292,
          29.02840886594606
        ]
      }
    }
  ]
}